format  = 'OEF2.0'       ! file format
rectype = 'ML'           ! record type (1L/ML)
refsys  = ECLM J2000     ! default reference system
END_OF_HEADER
va_000164
! Equinoctial elements: a, e*sin(LP), e*cos(LP), tan(i/2)*sin(LN), tan(i/2)*cos(LN), mean long.
 EQU   1.4597260179449265E+00   0.285850249905629   0.187519896958110   -0.001113588196863   -0.001969784075151  34.9405288562525
 MJD     57291.958166082 TDT
 MAG  22.961  0.150
! Non-grav parameters: model used, actual number in use, dimension
 LSP   0  0    6
! RMS    7.65523E-05   2.84582E-05   1.92969E-05   1.08878E-07   1.43178E-07   2.21483E-03
! EIG   2.03849E-08   2.27822E-08   5.43017E-08   8.15640E-08   9.40862E-07   9.23900E-05
! WEA   0.83231   0.45162   0.30620  -0.00168  -0.00187   0.09762
 COV   5.860247372585982E-09  2.178362289412858E-09  1.476947996406212E-09
 COV  -8.113905248299991E-12 -9.036238689926404E-12  1.695061423358529E-07
 COV   8.098674146002063E-10  5.488783998229242E-10 -3.016946381306758E-12
 COV  -3.359983888470522E-12  6.302669554653391E-08  3.723708437921890E-10
 COV  -2.043976774209205E-12 -2.276211807079296E-12  4.270161773224008E-08
 COV   1.185437394081973E-14  1.327380730178616E-14 -2.348198485409890E-10
 COV   2.050003959078764E-14 -2.615259124212114E-10  4.905493931380563E-06
 NOR   1.407752258699994E+14  1.719417319335384E+14 -3.660658461332547E+14
 NOR   6.574733036006190E+12  6.641112573012654E+11 -3.886634769947741E+12
 NOR   9.665065785228888E+14 -7.225518539145294E+14 -2.689075080844449E+13
 NOR   1.593024300347550E+12 -1.207068262451974E+13  1.053707195799472E+15
 NOR  -4.548098661094656E+12 -2.069618858336733E+12  1.275994933196419E+13
 NOR   1.899693081860064E+15 -2.184706658066265E+14  2.371909166854394E+11
 NOR   1.776576570472933E+14 -2.638614809254910E+10  1.783231281886189E+11
va_000165
! Equinoctial elements: a, e*sin(LP), e*cos(LP), tan(i/2)*sin(LN), tan(i/2)*cos(LN), mean long.
 EQU   1.4597264930484168E+00   0.285850426517230   0.187520016692411   -0.001113588854716   -0.001969784807815  34.9405425997581
 MJD     57291.958166082 TDT
 MAG  22.961  0.150
! Non-grav parameters: model used, actual number in use, dimension
 LSP   0  0    6
! RMS    7.65523E-05   2.84582E-05   1.92969E-05   1.08878E-07   1.43178E-07   2.21483E-03
! EIG   2.03849E-08   2.27822E-08   5.43017E-08   8.15641E-08   9.40862E-07   9.23901E-05
! WEA   0.83231   0.45162   0.30620  -0.00168  -0.00187   0.09762
 COV   5.860256936782696E-09  2.178364418236978E-09  1.476949294811768E-09
 COV  -8.113911547191807E-12 -9.036241844683441E-12  1.695062386422898E-07
 COV   8.098676758087543E-10  5.488785228483101E-10 -3.016946748453542E-12
 COV  -3.359982862232236E-12  6.302669009978162E-08  3.723708909394117E-10
 COV  -2.043976821036508E-12 -2.276210886585915E-12  4.270160982114114E-08
 COV   1.185437373423422E-14  1.327380203597847E-14 -2.348197811328927E-10
 COV   2.050003233658599E-14 -2.615257256614339E-10  4.905491502330066E-06
 NOR   1.407749914067658E+14  1.719415728553205E+14 -3.660655343710422E+14
 NOR   6.574724667613873E+12  6.641101680039434E+11 -3.886632426505254E+12
 NOR   9.665064188907634E+14 -7.225518925530005E+14 -2.689073565809384E+13
 NOR   1.593026442630794E+12 -1.207068418396750E+13  1.053707238340765E+15
 NOR  -4.548090859363562E+12 -2.069618612525626E+12  1.275995308797970E+13
 NOR   1.899691239163840E+15 -2.184705716835420E+14  2.371907934856706E+11
 NOR   1.776575258866446E+14 -2.638617403796571E+10  1.783232063229011E+11
va_000166
! Equinoctial elements: a, e*sin(LP), e*cos(LP), tan(i/2)*sin(LN), tan(i/2)*cos(LN), mean long.
 EQU   1.4597269671941069E+00   0.285850602772668   0.187520136185243   -0.001113589511243   -0.001969785539002  34.9405563155422
 MJD     57291.958166082 TDT
 MAG  22.961  0.150
! Non-grav parameters: model used, actual number in use, dimension
 LSP   0  0    6
! RMS    7.65524E-05   2.84582E-05   1.92969E-05   1.08878E-07   1.43178E-07   2.21483E-03
! EIG   2.03849E-08   2.27822E-08   5.43017E-08   8.15641E-08   9.40863E-07   9.23901E-05
! WEA   0.83231   0.45162   0.30620  -0.00168  -0.00187   0.09762
 COV   5.860266479322907E-09  2.178366541883224E-09  1.476950589999073E-09
 COV  -8.113917830081644E-12 -9.036244989400920E-12  1.695063346855483E-07
 COV   8.098679361607662E-10  5.488786454021059E-10 -3.016947113631016E-12
 COV  -3.359981836695618E-12  6.302668463834427E-08  3.723709378400982E-10
 COV  -2.043976866936607E-12 -2.276209967022078E-12  4.270160190860298E-08
 COV   1.185437352348690E-14  1.327379677569624E-14 -2.348197137651156E-10
 COV   2.050002509135067E-14 -2.615255391719423E-10  4.905489076181651E-06
 NOR   1.407747574168342E+14  1.719414140982094E+14 -3.660652232381129E+14
 NOR   6.574716316112842E+12  6.641090809056046E+11 -3.886630087792878E+12
 NOR   9.665062595816139E+14 -7.225519311143091E+14 -2.689072053832766E+13
 NOR   1.593028580591149E+12 -1.207068574028290E+13  1.053707280797409E+15
 NOR  -4.548083073378954E+12 -2.069618367212627E+12  1.275995683643380E+13
 NOR   1.899689400186982E+15 -2.184704777503663E+14  2.371906705346373E+11
 NOR   1.776573949907221E+14 -2.638619993104293E+10  1.783232842998108E+11
va_000167
! Equinoctial elements: a, e*sin(LP), e*cos(LP), tan(i/2)*sin(LN), tan(i/2)*cos(LN), mean long.
 EQU   1.4597274404039116E+00   0.285850778680091   0.187520255442126   -0.001113590166473   -0.001969786268745  34.9405700042390
 MJD     57291.958166082 TDT
 MAG  22.961  0.150
! Non-grav parameters: model used, actual number in use, dimension
 LSP   0  0    6
! RMS    7.65524E-05   2.84582E-05   1.92969E-05   1.08878E-07   1.43178E-07   2.21483E-03
! EIG   2.03849E-08   2.27822E-08   5.43018E-08   8.15641E-08   9.40863E-07   9.23902E-05
! WEA   0.83231   0.45162   0.30620  -0.00168  -0.00187   0.09762
 COV   5.860275997813884E-09  2.178368659396675E-09  1.476951881313487E-09
 COV  -8.113924093338595E-12 -9.036248119855365E-12  1.695064303881433E-07
 COV   8.098681952769345E-10  5.488787672244532E-10 -3.016947475398826E-12
 COV  -3.359980810189714E-12  6.302667913152464E-08  3.723709843162613E-10
 COV  -2.043976910922900E-12 -2.276209047243713E-12  4.270159397360331E-08
 COV   1.185437330314181E-14  1.327379151465086E-14 -2.348196463211770E-10
 COV   2.050001784801295E-14 -2.615253528178106E-10  4.905486650454695E-06
 NOR   1.407745238893695E+14  1.719412556548606E+14 -3.660649127200489E+14
 NOR   6.574707981115622E+12  6.641079959560190E+11 -3.886627753702219E+12
 NOR   9.665061005878925E+14 -7.225519696001680E+14 -2.689070544844550E+13
 NOR   1.593030714328097E+12 -1.207068729353603E+13  1.053707323171276E+15
 NOR  -4.548075302778096E+12 -2.069618122386785E+12  1.275996057749862E+13
 NOR   1.899687564844255E+15 -2.184703840027183E+14  2.371905478266538E+11
 NOR   1.776572643534260E+14 -2.638622577298676E+10  1.783233621229303E+11
va_000168
! Equinoctial elements: a, e*sin(LP), e*cos(LP), tan(i/2)*sin(LN), tan(i/2)*cos(LN), mean long.
 EQU   1.4597279126994769E+00   0.285850954247549   0.187520374468515   -0.001113590820437   -0.001969786997077  34.9405836664751
 MJD     57291.958166082 TDT
 MAG  22.961  0.150
! Non-grav parameters: model used, actual number in use, dimension
 LSP   0  0    6
! RMS    7.65525E-05   2.84582E-05   1.92969E-05   1.08878E-07   1.43178E-07   2.21483E-03
! EIG   2.03849E-08   2.27822E-08   5.43018E-08   8.15642E-08   9.40864E-07   9.23902E-05
! WEA   0.83231   0.45162   0.30620  -0.00168  -0.00187   0.09762
 COV   5.860285496126728E-09  2.178370772150924E-09  1.476953169680474E-09
 COV  -8.113930342002339E-12 -9.036251241485317E-12  1.695065258537696E-07
 COV   8.098684536435500E-10  5.488788886428803E-10 -3.016947835539818E-12
 COV  -3.359979784635325E-12  6.302667361597733E-08  3.723710305885061E-10
 COV  -2.043976954196012E-12 -2.276208128544071E-12  4.270158604082402E-08
 COV   1.185437307976462E-14  1.327378625992728E-14 -2.348195789353914E-10
 COV   2.050001061439875E-14 -2.615251667435852E-10  4.905484227909186E-06
 NOR   1.407742908137098E+14  1.719410975179964E+14 -3.660646028026769E+14
 NOR   6.574699662242076E+12  6.641069131053678E+11 -3.886625424126579E+12
 NOR   9.665059419025666E+14 -7.225520080123621E+14 -2.689069038775587E+13
 NOR   1.593032843938543E+12 -1.207068884379986E+13  1.053707365464372E+15
 NOR  -4.548067547208789E+12 -2.069617878036125E+12  1.275996431134604E+13
 NOR   1.899685733051912E+15 -2.184702904364107E+14  2.371904253560788E+11
 NOR   1.776571339688942E+14 -2.638625156496701E+10  1.783234397958397E+11
